{
  "type": "FeatureCollection",
  "features": [
    {
      "type": "Feature",
      "properties": {
        "norad_id": 34765,
        "name": "IRIDIUM 33 DEB",
        "group": "iridium-33-debris",
        "lat": -62.23811570362463,
        "lon": -140.07381221662314,
        "alt_km": 754.7053877123553,
        "timestamp": "2025-12-12T07:43:20.900476+00:00",
        "meta_object_name": "IRIDIUM 33 DEB",
        "meta_object_id": "1997-051LJ",
        "meta_epoch": "2025-12-11T14:38:05.129376",
        "meta_mean_motion": 14.40460694,
        "meta_eccentricity": 0.00153204,
        "meta_inclination": 86.3396,
        "meta_ra_of_asc_node": 33.2465,
        "meta_arg_of_pericenter": 215.3687,
        "meta_mean_anomaly": 297.1612,
        "meta_ephemeris_type": 0,
        "meta_classification_type": "U",
        "meta_norad_cat_id": 34765,
        "meta_element_set_no": 999,
        "meta_rev_at_epoch": 87597,
        "meta_bstar": 0.00062745119,
        "meta_mean_motion_dot": 2.016e-05,
        "meta_mean_motion_ddot": 0,
        "tle_line1": "1 34765U 97051LJ  25345.60978159  .00002016  00000+0  62745-3 0  9996",
        "tle_line2": "2 34765  86.3396  33.2465 0015320 215.3687 297.1612 14.40460694875970"
      },
      "geometry": {
        "type": "Point",
        "coordinates": [
          -140.07381221662314,
          -62.23811570362463
        ]
      }
    },
    {
      "type": "Feature",
      "properties": {
        "norad_id": 34833,
        "name": "IRIDIUM 33 DEB",
        "group": "iridium-33-debris",
        "lat": -30.30280098490237,
        "lon": 49.06073006714483,
        "alt_km": 733.9194130587066,
        "timestamp": "2025-12-12T07:43:20.900486+00:00",
        "meta_object_name": "IRIDIUM 33 DEB",
        "meta_object_id": "1997-051MH",
        "meta_epoch": "2025-12-11T22:11:36.416256",
        "meta_mean_motion": 14.5237094,
        "meta_eccentricity": 0.00218401,
        "meta_inclination": 86.3926,
        "meta_ra_of_asc_node": 51.3447,
        "meta_arg_of_pericenter": 101.1213,
        "meta_mean_anomaly": 314.1903,
        "meta_ephemeris_type": 0,
        "meta_classification_type": "U",
        "meta_norad_cat_id": 34833,
        "meta_element_set_no": 999,
        "meta_rev_at_epoch": 87703,
        "meta_bstar": 0.0012554918,
        "meta_mean_motion_dot": 5.146e-05,
        "meta_mean_motion_ddot": 0,
        "tle_line1": "1 34833U 97051MH  25345.92472704  .00005146  00000+0  12555-2 0  9992",
        "tle_line2": "2 34833  86.3926  51.3447 0021840 101.1213 314.1903 14.52370940877036"
      },
      "geometry": {
        "type": "Point",
        "coordinates": [
          49.06073006714483,
          -30.30280098490237
        ]
      }
    },
    {
      "type": "Feature",
      "properties": {
        "norad_id": 34870,
        "name": "IRIDIUM 33 DEB",
        "group": "iridium-33-debris",
        "lat": -84.56700106841919,
        "lon": 176.9935552322895,
        "alt_km": 646.4822632898167,
        "timestamp": "2025-12-12T07:43:20.900497+00:00",
        "meta_object_name": "IRIDIUM 33 DEB",
        "meta_object_id": "1997-051MQ",
        "meta_epoch": "2025-12-10T16:16:47.325792",
        "meta_mean_motion": 14.76360658,
        "meta_eccentricity": 0.00158788,
        "meta_inclination": 86.3108,
        "meta_ra_of_asc_node": 315.0279,
        "meta_arg_of_pericenter": 190.0668,
        "meta_mean_anomaly": 346.5866,
        "meta_ephemeris_type": 0,
        "meta_classification_type": "U",
        "meta_norad_cat_id": 34870,
        "meta_element_set_no": 999,
        "meta_rev_at_epoch": 88880,
        "meta_bstar": 0.0023954817,
        "meta_mean_motion_dot": 0.00016709,
        "meta_mean_motion_ddot": 0,
        "tle_line1": "1 34870U 97051MQ  25344.67832553  .00016709  00000+0  23955-2 0  9999",
        "tle_line2": "2 34870  86.3108 315.0279 0015878 190.0668 346.5866 14.76360658888802"
      },
      "geometry": {
        "type": "Point",
        "coordinates": [
          176.9935552322895,
          -84.56700106841919
        ]
      }
    },
    {
      "type": "Feature",
      "properties": {
        "norad_id": 34896,
        "name": "IRIDIUM 33 DEB",
        "group": "iridium-33-debris",
        "lat": 57.79870829420431,
        "lon": 141.02255256977466,
        "alt_km": 668.8032112560295,
        "timestamp": "2025-12-12T07:43:20.900507+00:00",
        "meta_object_name": "IRIDIUM 33 DEB",
        "meta_object_id": "1997-051MY",
        "meta_epoch": "2025-12-11T06:54:08.257248",
        "meta_mean_motion": 14.66256347,
        "meta_eccentricity": 0.00241983,
        "meta_inclination": 86.3294,
        "meta_ra_of_asc_node": 327.3367,
        "meta_arg_of_pericenter": 219.9786,
        "meta_mean_anomaly": 206.8534,
        "meta_ephemeris_type": 0,
        "meta_classification_type": "U",
        "meta_norad_cat_id": 34896,
        "meta_element_set_no": 999,
        "meta_rev_at_epoch": 87598,
        "meta_bstar": 0.0017967326,
        "meta_mean_motion_dot": 9.969e-05,
        "meta_mean_motion_ddot": 0,
        "tle_line1": "1 34896U 97051MY  25345.28759557  .00009969  00000+0  17967-2 0  9993",
        "tle_line2": "2 34896  86.3294 327.3367 0024198 219.9786 206.8534 14.66256347875980"
      },
      "geometry": {
        "type": "Point",
        "coordinates": [
          141.02255256977466,
          57.79870829420431
        ]
      }
    },
    {
      "type": "Feature",
      "properties": {
        "norad_id": 34926,
        "name": "IRIDIUM 33 DEB",
        "group": "iridium-33-debris",
        "lat": -45.754205680366596,
        "lon": -167.55068525163102,
        "alt_km": 698.2274545955743,
        "timestamp": "2025-12-12T07:43:20.900524+00:00",
        "meta_object_name": "IRIDIUM 33 DEB",
        "meta_object_id": "1997-051NF",
        "meta_epoch": "2025-12-11T19:22:10.619040",
        "meta_mean_motion": 14.54346009,
        "meta_eccentricity": 0.00754631,
        "meta_inclination": 86.1327,
        "meta_ra_of_asc_node": 8.7055,
        "meta_arg_of_pericenter": 295.9766,
        "meta_mean_anomaly": 117.5242,
        "meta_ephemeris_type": 0,
        "meta_classification_type": "U",
        "meta_norad_cat_id": 34926,
        "meta_element_set_no": 999,
        "meta_rev_at_epoch": 86443,
        "meta_bstar": 0.0073698942,
        "meta_mean_motion_dot": 0.00032638,
        "meta_mean_motion_ddot": 0,
        "tle_line1": "1 34926U 97051NF  25345.80706735  .00032638  00000+0  73699-2 0  9998",
        "tle_line2": "2 34926  86.1327   8.7055 0075463 295.9766 117.5242 14.54346009864430"
      },
      "geometry": {
        "type": "Point",
        "coordinates": [
          -167.55068525163102,
          -45.754205680366596
        ]
      }
    },
    {
      "type": "Feature",
      "properties": {
        "norad_id": 34985,
        "name": "IRIDIUM 33 DEB",
        "group": "iridium-33-debris",
        "lat": 10.237352551546449,
        "lon": 57.71460781019481,
        "alt_km": 766.0978118740431,
        "timestamp": "2025-12-12T07:43:20.900545+00:00",
        "meta_object_name": "IRIDIUM 33 DEB",
        "meta_object_id": "1997-051NR",
        "meta_epoch": "2025-12-11T11:45:25.383168",
        "meta_mean_motion": 14.42002723,
        "meta_eccentricity": 0.00206039,
        "meta_inclination": 86.3696,
        "meta_ra_of_asc_node": 57.4124,
        "meta_arg_of_pericenter": 224.0438,
        "meta_mean_anomaly": 150.4182,
        "meta_ephemeris_type": 0,
        "meta_classification_type": "U",
        "meta_norad_cat_id": 34985,
        "meta_element_set_no": 999,
        "meta_rev_at_epoch": 87157,
        "meta_bstar": 0.0012198986,
        "meta_mean_motion_dot": 4.029e-05,
        "meta_mean_motion_ddot": 0,
        "tle_line1": "1 34985U 97051NR  25345.48987712  .00004029  00000+0  12199-2 0  9994",
        "tle_line2": "2 34985  86.3696  57.4124 0020603 224.0438 150.4182 14.42002723871570"
      },
      "geometry": {
        "type": "Point",
        "coordinates": [
          57.71460781019481,
          10.237352551546449
        ]
      }
    },
    {
      "type": "Feature",
      "properties": {
        "norad_id": 35051,
        "name": "IRIDIUM 33 DEB",
        "group": "iridium-33-debris",
        "lat": -65.24610941598343,
        "lon": 1.0301022032213056,
        "alt_km": 747.8107869755322,
        "timestamp": "2025-12-12T07:43:20.900557+00:00",
        "meta_object_name": "IRIDIUM 33 DEB",
        "meta_object_id": "1997-051NX",
        "meta_epoch": "2025-12-11T08:47:57.045408",
        "meta_mean_motion": 14.47588957,
        "meta_eccentricity": 0.00106566,
        "meta_inclination": 86.3243,
        "meta_ra_of_asc_node": 9.4603,
        "meta_arg_of_pericenter": 94.8899,
        "meta_mean_anomaly": 265.3522,
        "meta_ephemeris_type": 0,
        "meta_classification_type": "U",
        "meta_norad_cat_id": 35051,
        "meta_element_set_no": 999,
        "meta_rev_at_epoch": 86976,
        "meta_bstar": 0.001042299,
        "meta_mean_motion_dot": 3.858e-05,
        "meta_mean_motion_ddot": 0,
        "tle_line1": "1 35051U 97051NX  25345.36663247  .00003858  00000+0  10423-2 0  9997",
        "tle_line2": "2 35051  86.3243   9.4603 0010656  94.8899 265.3522 14.47588957869768"
      },
      "geometry": {
        "type": "Point",
        "coordinates": [
          1.0301022032213056,
          -65.24610941598343
        ]
      }
    }
  ]
}